[{"OBJECT_NAME":"STARLINK-31898","OBJECT_ID":"2024-100W","EPOCH":"2026-03-09T05:05:54.486816","MEAN_MOTION":15.27580842,"ECCENTRICITY":0.00013804,"INCLINATION":43.003,"RA_OF_ASC_NODE":124.655,"ARG_OF_PERICENTER":267.8418,"MEAN_ANOMALY":92.2276,"EPHEMERIS_TYPE":0,"CLASSIFICATION_TYPE":"U","NORAD_CAT_ID":59905,"ELEMENT_SET_NO":999,"REV_AT_EPOCH":10111,"BSTAR":8.4768829e-5,"MEAN_MOTION_DOT":2.071e-5,"MEAN_MOTION_DDOT":0},{"OBJECT_NAME":"CZ-4B DEB","OBJECT_ID":"1999-057H","EPOCH":"2026-03-09T17:25:29.363520","MEAN_MOTION":15.25756771,"ECCENTRICITY":0.00339549,"INCLINATION":98.6728,"RA_OF_ASC_NODE":149.1557,"ARG_OF_PERICENTER":175.409,"MEAN_ANOMALY":184.7463,"EPHEMERIS_TYPE":0,"CLASSIFICATION_TYPE":"U","NORAD_CAT_ID":26121,"ELEMENT_SET_NO":999,"REV_AT_EPOCH":41150,"BSTAR":0.00075758105,"MEAN_MOTION_DOT":0.00019602,"MEAN_MOTION_DDOT":0}]
